{
"type": "FeatureCollection",
"name": "sky-galapagos-whaleshark",
"crs": { "type": "name", "properties": { "name": "urn:ogc:def:crs:OGC:1.3:CRS84" } },
"features": [
{ "type": "Feature", "properties": { "fid": 1, "individual_id": "1800219324", "begin": "2021-08-29T16:20:13", "end": "2022-02-24 04:03:35.000" }, "geometry": { "type": "LineString", "coordinates": [ [ -91.96497, 1.69815 ], [ -92.00721, 1.66025 ], [ -92.00697, 1.66028 ], [ -91.83087, 1.61321 ], [ -91.6714, 1.60959 ], [ -91.68754, 1.61174 ], [ -91.67907, 1.60924 ], [ -91.6739, 1.60149 ], [ -91.65946, 1.59161 ], [ -91.66196, 1.58284 ], [ -91.58737, 1.49794 ], [ -91.57399, 1.50081 ], [ -91.58009, 1.50228 ], [ -91.57728, 1.50111 ], [ -91.5905, 1.48767 ], [ -91.58759, 1.48993 ], [ -91.56858, 1.48407 ], [ -91.57306, 1.37696 ], [ -91.58044, 1.3706 ], [ -91.58625, 1.37039 ], [ -91.52515, 1.21587 ], [ -91.54272, 1.22612 ], [ -91.53774, 1.2212 ], [ -91.55623, 1.22572 ], [ -91.55339, 1.22085 ], [ -91.57486, 1.21822 ], [ -91.58179, 1.23688 ], [ -91.56533, 1.0897 ], [ -91.56221, 1.05985 ], [ -91.58834, 1.06073 ], [ -91.49061, 0.97756 ], [ -91.49072, 0.97399 ], [ -91.45343, 0.96393 ], [ -91.38634, 0.83936 ], [ -91.34996, 0.82311 ], [ -91.34094, 0.82882 ], [ -91.19552, 0.66782 ], [ -91.14761, 0.48079 ], [ -90.86813, -0.42697 ], [ -90.84067, -0.42199 ], [ -90.48887, -1.15636 ], [ -90.38409, -1.2453 ], [ -90.55571, -1.42703 ], [ -90.26151, -1.74264 ], [ -90.26028, -1.74248 ], [ -90.25392, -1.76371 ], [ -90.35228, -1.95147 ], [ -90.41944, -2.03476 ], [ -90.69239, -2.36316 ], [ -90.69706, -2.36589 ], [ -91.04408, -2.42904 ], [ -91.09158, -2.4191 ], [ -91.14186, -2.36928 ], [ -91.18045, -2.38052 ], [ -91.71365, -5.51452 ], [ -92.38073, -6.65293 ], [ -92.41362, -6.6734 ], [ -93.2448, -7.96988 ], [ -93.77683, -8.91416 ], [ -93.79018, -8.91877 ], [ -93.82658, -8.97681 ], [ -93.84214, -8.97518 ], [ -93.83257, -9.02511 ], [ -93.9535, -9.21847 ], [ -93.95102, -9.21947 ], [ -93.9822, -9.26303 ], [ -93.99291, -9.26353 ], [ -93.96919, -9.27296 ], [ -94.00467, -9.30311 ], [ -94.1586, -9.48679 ], [ -94.16965, -9.49139 ], [ -94.2071, -9.53722 ], [ -94.23488, -9.57 ], [ -94.26971, -9.59691 ], [ -94.41257, -9.79713 ], [ -94.41806, -9.81128 ], [ -94.48525, -9.87323 ], [ -94.48913, -9.90362 ], [ -94.48353, -9.90579 ], [ -94.63496, -10.09885 ], [ -94.63241, -10.10358 ], [ -94.68762, -10.17677 ], [ -94.73357, -10.24259 ], [ -94.93749, -10.48844 ], [ -94.98132, -10.50275 ], [ -95.27548, -10.8982 ], [ -95.46556, -11.0853 ], [ -95.54882, -11.15751 ], [ -95.90172, -11.777 ], [ -96.18309, -12.07078 ], [ -96.51289, -12.55394 ], [ -96.51946, -12.55782 ], [ -96.643, -12.8888 ], [ -97.05032, -13.96444 ], [ -97.23905, -14.25775 ], [ -97.27334, -14.22158 ], [ -97.25687, -14.26378 ], [ -97.28523, -14.32173 ], [ -97.28484, -14.32814 ], [ -97.32852, -14.51175 ], [ -97.36695, -14.50914 ], [ -97.51569, -14.80695 ], [ -97.54858, -14.82819 ], [ -97.73285, -15.01924 ], [ -97.74558, -15.02955 ], [ -97.76246, -15.05224 ], [ -97.84673, -15.10069 ], [ -97.96565, -15.27922 ], [ -98.00223, -15.27207 ], [ -98.26368, -15.5832 ], [ -98.35757, -15.68636 ], [ -98.38477, -15.70675 ], [ -98.39631, -15.72582 ], [ -98.41464, -15.73426 ], [ -98.62957, -16.00898 ], [ -98.62401, -16.00276 ], [ -98.82636, -16.29343 ], [ -98.82445, -16.30968 ], [ -98.82582, -16.29548 ], [ -98.83733, -16.29902 ], [ -98.84595, -16.31116 ], [ -98.94968, -16.40312 ], [ -99.07123, -16.53805 ], [ -99.09488, -16.56041 ], [ -99.10918, -16.55512 ], [ -99.10491, -16.56212 ], [ -99.13935, -16.57276 ], [ -99.1601, -16.57572 ], [ -99.3442, -16.61069 ], [ -99.36823, -16.59771 ], [ -99.38632, -16.60292 ], [ -99.39538, -16.60447 ], [ -99.39978, -16.60686 ], [ -99.41062, -16.60991 ], [ -99.41301, -16.59795 ], [ -99.42426, -16.60607 ], [ -99.44266, -16.59671 ], [ -99.45825, -16.5951 ], [ -99.49568, -16.59959 ], [ -99.52166, -16.60255 ], [ -99.74499, -16.62641 ], [ -99.7957, -16.63541 ], [ -99.7995, -16.64131 ], [ -99.81545, -16.64096 ], [ -99.88477, -16.63099 ], [ -99.92008, -16.634 ], [ -100.14819, -16.61939 ], [ -100.19897, -16.62827 ], [ -100.22668, -16.62527 ], [ -100.23893, -16.63211 ], [ -100.26541, -16.63422 ], [ -100.25636, -16.63598 ], [ -100.27223, -16.64234 ], [ -100.55197, -16.65671 ], [ -100.70043, -16.67117 ], [ -101.18275, -16.59389 ], [ -100.74097, -16.49239 ], [ -100.7601, -16.48415 ], [ -100.75107, -16.48304 ], [ -100.77209, -16.46359 ], [ -100.77373, -16.45353 ], [ -100.77634, -16.44399 ], [ -100.79, -16.4259 ], [ -100.78524, -16.42445 ], [ -100.82031, -16.405 ], [ -100.95734, -16.26288 ], [ -100.896, -16.09374 ], [ -101.14194, -16.1039 ], [ -101.14632, -16.09508 ], [ -101.14703, -16.08384 ], [ -101.17187, -16.07459 ], [ -101.19882, -16.07156 ], [ -101.19198, -16.07096 ], [ -101.21294, -16.05144 ], [ -101.21202, -16.04916 ], [ -101.24278, -16.02478 ], [ -101.25471, -16.02563 ], [ -101.39013, -15.88309 ], [ -101.38625, -15.85028 ], [ -101.43406, -15.85393 ], [ -101.59197, -15.69105 ], [ -101.60166, -15.6861 ], [ -101.60372, -15.68279 ], [ -101.61386, -15.6608 ], [ -101.62234, -15.65194 ], [ -101.62246, -15.66109 ], [ -101.63168, -15.63481 ], [ -101.64944, -15.61809 ], [ -101.66635, -15.61635 ], [ -101.66928, -15.60747 ], [ -101.67844, -15.60782 ], [ -101.69632, -15.58759 ], [ -101.71924, -15.57861 ], [ -101.72668, -15.58723 ], [ -101.86118, -15.45508 ], [ -101.88722, -15.43558 ], [ -101.91811, -15.41532 ], [ -101.92556, -15.41258 ], [ -101.9448, -15.40638 ], [ -101.98443, -15.37418 ], [ -102.16702, -15.25085 ], [ -102.17956, -15.248 ], [ -102.18606, -15.24372 ], [ -102.17311, -15.25347 ], [ -102.18649, -15.2315 ], [ -102.20383, -15.22682 ], [ -102.21146, -15.22311 ], [ -102.26596, -15.18128 ], [ -102.4173, -15.03656 ], [ -102.4322, -15.03171 ], [ -102.46062, -15.02074 ], [ -102.46323, -14.99736 ], [ -102.85277, -14.88554 ], [ -102.71272, -14.84228 ], [ -102.73788, -14.82837 ], [ -102.76035, -14.81377 ], [ -102.76144, -14.81256 ], [ -102.7619, -14.81962 ], [ -102.79009, -14.80241 ], [ -102.79222, -14.79076 ], [ -102.77574, -14.79206 ], [ -102.81043, -14.78177 ], [ -103.02238, -14.68172 ], [ -103.07344, -14.66584 ], [ -103.08132, -14.66316 ], [ -103.33362, -14.609 ], [ -103.33928, -14.60247 ], [ -103.34189, -14.61104 ], [ -103.34879, -14.60036 ], [ -103.37436, -14.59718 ], [ -103.38603, -14.5994 ], [ -103.39169, -14.59984 ], [ -103.40998, -14.59397 ], [ -103.42623, -14.5766 ], [ -103.47129, -14.57999 ], [ -103.46752, -14.58346 ], [ -103.48493, -14.57339 ], [ -103.72864, -14.49247 ], [ -103.7314, -14.49957 ], [ -103.74253, -14.50205 ], [ -103.74942, -14.49368 ], [ -103.78792, -14.47965 ], [ -103.77384, -14.48207 ], [ -103.81369, -14.47479 ], [ -103.82311, -14.46071 ], [ -104.01941, -14.44002 ], [ -104.02301, -14.42588 ], [ -104.05095, -14.41408 ], [ -104.0946, -14.39896 ], [ -104.10238, -14.38978 ], [ -104.11629, -14.39034 ], [ -104.12668, -14.38686 ], [ -104.1411, -14.37423 ], [ -104.16564, -14.3561 ], [ -104.41379, -14.26267 ], [ -104.43458, -14.24807 ], [ -104.44916, -14.24654 ], [ -104.6196, -14.19353 ], [ -104.63831, -14.17742 ], [ -104.64881, -14.15255 ], [ -104.72568, -14.12691 ], [ -104.69676, -14.13887 ], [ -104.71924, -14.13295 ], [ -104.73506, -14.13349 ], [ -104.76928, -14.11418 ], [ -104.76285, -14.12903 ], [ -104.98328, -14.05741 ], [ -104.99499, -14.06799 ], [ -105.03411, -14.05293 ], [ -105.07711, -14.05147 ], [ -105.09298, -14.04896 ], [ -105.29756, -14.01633 ], [ -105.31251, -14.01704 ], [ -105.34226, -14.01009 ], [ -105.37972, -13.99258 ], [ -105.43936, -14.05262 ], [ -105.69225, -13.87378 ], [ -105.6951, -13.86779 ], [ -105.70821, -13.86838 ], [ -105.71408, -13.86802 ], [ -105.72967, -13.86309 ], [ -105.737, -13.85873 ], [ -105.93016, -13.80935 ], [ -105.94958, -13.80968 ], [ -105.96297, -13.79852 ], [ -105.98482, -13.78497 ], [ -105.99488, -13.788 ], [ -106.00747, -13.7756 ], [ -106.00343, -13.77867 ], [ -106.2713, -13.61965 ], [ -106.34973, -13.58572 ], [ -106.35423, -13.59261 ], [ -106.57496, -13.47749 ], [ -106.57722, -13.47873 ], [ -106.89513, -13.272 ], [ -106.90519, -13.27548 ], [ -107.07972, -13.16499 ], [ -107.08263, -13.16325 ], [ -107.1008, -13.16907 ], [ -107.13041, -13.14692 ], [ -107.1241, -13.1505 ], [ -107.17394, -13.12598 ], [ -107.37179, -13.10755 ], [ -107.63332, -13.08373 ], [ -107.65769, -13.08114 ], [ -107.69384, -13.06327 ], [ -107.70037, -13.06627 ], [ -107.97267, -12.97996 ], [ -108.01185, -12.97191 ], [ -108.18027, -12.95861 ], [ -108.1892, -12.96293 ], [ -108.19532, -12.96406 ], [ -108.18967, -12.96081 ], [ -108.20492, -12.94361 ], [ -108.21796, -12.93789 ], [ -108.24484, -12.92897 ], [ -108.24755, -12.92415 ], [ -108.23927, -12.92106 ], [ -108.2626, -12.92175 ], [ -108.46602, -12.8648 ], [ -108.4911, -12.85965 ], [ -108.49641, -12.85663 ], [ -108.51736, -12.86323 ], [ -108.60036, -12.83915 ], [ -108.58179, -12.87693 ], [ -108.7672, -12.84859 ], [ -108.78465, -12.84286 ], [ -108.8017, -12.83315 ], [ -108.82396, -12.82676 ], [ -108.82905, -12.82527 ], [ -108.82698, -12.81972 ], [ -108.84186, -12.82047 ], [ -108.47322, -12.86055 ], [ -108.51319, -12.86046 ], [ -108.72811, -12.85664 ], [ -108.74283, -12.85476 ], [ -108.7735, -12.84858 ], [ -108.76687, -12.84966 ], [ -108.8416, -12.82015 ], [ -109.0484, -12.75021 ], [ -109.08762, -12.74074 ], [ -109.11737, -12.76199 ], [ -109.15362, -12.74478 ], [ -109.15246, -12.7451 ], [ -109.17534, -12.74447 ], [ -109.33122, -12.71928 ], [ -109.33071, -12.71856 ], [ -109.33352, -12.71655 ], [ -109.37834, -12.71752 ], [ -109.38644, -12.71343 ], [ -109.37615, -12.70857 ], [ -109.39339, -12.70445 ], [ -109.44575, -12.69392 ], [ -109.44835, -12.69331 ], [ -109.59667, -12.5128 ], [ -109.60814, -12.50593 ], [ -109.69307, -12.45339 ], [ -109.81989, -12.39092 ], [ -109.77653, -12.33648 ], [ -109.77587, -12.34135 ], [ -109.77388, -12.34168 ], [ -109.80278, -12.35395 ], [ -109.78397, -12.3366 ], [ -109.81248, -12.32033 ], [ -109.79474, -12.31353 ], [ -109.81625, -12.29808 ], [ -109.80427, -12.30474 ], [ -109.80788, -12.25671 ], [ -109.8093, -12.25529 ], [ -109.91282, -12.11945 ], [ -109.90316, -12.11267 ], [ -110.10984, -12.03378 ], [ -110.10678, -12.02738 ], [ -110.10896, -12.02992 ], [ -110.1223, -12.02026 ], [ -110.11929, -12.03026 ], [ -110.13633, -12.01804 ], [ -110.09506, -12.04824 ], [ -110.10352, -12.02432 ], [ -110.1413, -12.03 ], [ -110.14763, -12.01955 ], [ -110.14827, -12.01969 ], [ -110.10202, -12.04564 ], [ -110.15349, -12.0162 ], [ -110.15055, -12.0191 ], [ -110.16525, -12.04029 ], [ -110.18463, -12.03514 ], [ -110.574, -12.13162 ], [ -110.55397, -12.15243 ], [ -110.71915, -12.3507 ], [ -110.31083, -12.57284 ], [ -110.31016, -12.57181 ], [ -110.3118, -12.56978 ], [ -110.30967, -12.56632 ], [ -110.32893, -12.5578 ], [ -110.35157, -12.56334 ], [ -110.34122, -12.56474 ], [ -110.33615, -12.56585 ], [ -110.5763, -13.30259 ], [ -111.42297, -13.04202 ], [ -111.00967, -13.11991 ], [ -110.99786, -13.25677 ], [ -110.9248, -13.31337 ], [ -110.68066, -13.44537 ], [ -110.66745, -13.45855 ], [ -110.66599, -13.46725 ], [ -110.66676, -13.46754 ], [ -110.45962, -13.92447 ], [ -109.62463, -15.57584 ], [ -109.62564, -15.57457 ], [ -109.62801, -15.57017 ], [ -109.60141, -15.59066 ], [ -109.60959, -15.56766 ], [ -109.60901, -15.56772 ], [ -109.56943, -15.56765 ], [ -109.47418, -15.60774 ], [ -109.27819, -15.74798 ], [ -108.90676, -15.84487 ], [ -108.90011, -15.83606 ], [ -108.88795, -15.83413 ], [ -108.8976, -15.8381 ], [ -108.87168, -15.83386 ], [ -108.73386, -15.88742 ], [ -108.67129, -16.09772 ], [ -108.65979, -16.10097 ], [ -108.70602, -16.14022 ], [ -108.70486, -16.20395 ], [ -108.71224, -16.20832 ], [ -108.71723, -16.2073 ], [ -108.64125, -16.35104 ], [ -108.56602, -16.4239 ], [ -108.46895, -16.42989 ], [ -108.45847, -16.43862 ], [ -108.45486, -16.44677 ], [ -108.33395, -16.538 ], [ -108.32787, -16.53678 ], [ -108.3285, -16.54435 ], [ -108.33167, -16.54784 ], [ -108.3212, -16.56758 ], [ -108.30996, -16.53951 ], [ -108.30952, -16.54079 ], [ -108.31031, -16.53676 ], [ -108.29804, -16.55256 ], [ -108.25472, -16.6041 ], [ -108.25923, -16.60134 ], [ -108.28385, -16.60746 ], [ -108.26346, -16.6307 ], [ -108.2621, -16.61719 ], [ -108.25537, -16.6492 ], [ -108.22823, -16.66833 ], [ -108.21518, -16.72026 ], [ -108.2073, -16.71225 ], [ -108.19133, -16.71346 ], [ -108.19099, -16.71781 ], [ -108.18207, -16.70154 ], [ -108.18507, -16.71708 ], [ -108.17219, -16.73429 ], [ -108.13286, -16.78936 ], [ -108.18116, -16.72724 ], [ -108.17485, -16.77945 ], [ -108.17465, -16.77967 ], [ -108.16905, -16.77857 ], [ -108.1684, -16.76777 ], [ -108.09998, -16.76689 ], [ -108.05698, -16.76866 ], [ -108.07544, -16.76623 ], [ -108.03815, -16.76203 ], [ -108.12643, -16.80156 ], [ -108.1277, -16.79838 ], [ -108.10088, -16.8083 ], [ -108.10531, -16.81175 ], [ -108.00221, -16.79722 ], [ -108.05694, -16.80574 ], [ -108.09431, -16.83477 ], [ -108.09307, -16.83193 ], [ -108.08974, -16.83242 ], [ -108.0863, -16.83553 ], [ -108.07861, -16.82679 ], [ -108.05938, -16.89486 ], [ -108.05068, -16.91051 ], [ -108.05471, -16.91435 ], [ -108.04399, -16.93625 ], [ -108.02834, -16.96095 ], [ -108.05312, -16.9896 ], [ -108.07651, -16.99643 ], [ -108.08052, -16.98521 ], [ -108.08727, -16.99991 ], [ -108.12602, -17.06404 ], [ -108.0954, -16.99777 ], [ -108.16711, -17.0773 ], [ -108.13819, -17.08307 ], [ -108.13375, -17.08143 ], [ -108.14248, -17.09773 ], [ -108.00026, -17.02649 ], [ -108.00971, -17.10091 ], [ -107.96041, -17.12277 ], [ -107.79343, -17.22091 ], [ -108.02279, -17.10825 ], [ -108.03912, -17.10785 ], [ -108.01677, -17.11652 ], [ -108.01602, -17.11709 ], [ -107.96758, -17.18729 ], [ -108.04614, -17.25199 ], [ -108.00224, -17.21629 ], [ -107.95487, -17.31009 ], [ -107.95166, -17.3061 ], [ -107.95386, -17.30059 ], [ -107.89395, -17.18442 ], [ -107.88733, -17.16637 ], [ -107.89492, -17.16973 ], [ -107.90322, -17.16764 ], [ -107.93277, -17.16114 ], [ -107.98394, -17.15676 ], [ -107.95797, -17.09998 ], [ -107.9558, -17.0799 ], [ -107.95564, -17.07533 ], [ -107.94913, -17.07399 ], [ -107.95535, -17.06252 ], [ -107.95597, -17.06323 ], [ -107.95631, -17.06354 ], [ -107.96055, -17.21255 ], [ -107.95438, -17.20811 ], [ -107.93616, -17.22735 ], [ -107.97738, -17.1655 ], [ -107.96551, -17.1537 ], [ -107.96497, -17.15189 ], [ -107.94946, -17.1537 ], [ -107.96732, -17.13476 ], [ -107.95971, -17.14242 ], [ -107.99727, -17.14142 ], [ -107.97795, -17.14512 ], [ -107.98142, -17.15344 ], [ -108.00393, -17.12334 ], [ -107.94764, -17.23482 ], [ -107.95891, -17.22986 ], [ -107.89127, -17.20774 ], [ -107.89921, -17.20669 ], [ -107.90588, -17.18462 ], [ -107.90296, -17.18562 ], [ -107.9073, -17.18839 ], [ -107.90943, -17.18568 ], [ -107.90849, -17.18771 ], [ -107.92094, -17.20556 ], [ -107.91004, -17.16233 ], [ -107.99087, -17.15306 ], [ -107.97054, -17.14801 ], [ -107.96044, -17.1883 ], [ -107.96113, -17.1981 ], [ -107.9608, -17.17978 ], [ -107.97964, -17.15971 ], [ -107.94897, -17.18065 ], [ -107.97358, -17.16786 ], [ -107.99787, -17.15511 ], [ -108.10897, -17.16064 ], [ -108.07074, -17.17156 ], [ -107.99139, -17.20875 ], [ -108.03989, -17.0656 ], [ -108.05028, -17.07842 ], [ -108.02751, -17.05093 ], [ -108.0275, -17.05093 ], [ -108.04455, -17.06686 ], [ -107.9507, -17.10774 ], [ -107.90339, -17.08826 ], [ -108.22245, -16.97942 ], [ -108.19536, -16.98631 ], [ -108.21324, -16.96666 ], [ -108.2382, -16.9405 ], [ -108.18957, -16.94242 ], [ -108.20841, -16.95403 ], [ -108.23915, -16.94547 ], [ -108.21301, -16.93984 ], [ -108.20333, -16.92862 ], [ -108.30137, -16.88697 ], [ -108.22858, -16.95298 ], [ -108.22769, -16.9525 ], [ -108.28727, -16.98211 ], [ -108.24883, -16.97336 ], [ -108.28303, -16.98616 ], [ -108.29252, -16.98643 ], [ -108.29227, -16.98767 ], [ -108.28634, -16.98801 ], [ -108.31179, -16.98866 ], [ -108.30012, -16.99625 ], [ -108.30652, -16.99643 ], [ -108.42778, -16.98291 ], [ -108.32462, -17.02248 ], [ -108.26047, -17.02909 ], [ -108.23854, -17.04547 ], [ -108.3692, -17.11898 ], [ -108.3375, -17.04973 ], [ -108.344, -17.17095 ], [ -108.34488, -17.1614 ], [ -108.32316, -17.14038 ], [ -108.33425, -17.14299 ], [ -108.38269, -17.11474 ], [ -108.37429, -17.11056 ], [ -108.38298, -17.11072 ], [ -108.3812, -17.09443 ], [ -108.42086, -17.11154 ], [ -108.40712, -17.11198 ], [ -108.40558, -17.12511 ], [ -108.25803, -16.97688 ], [ -108.17576, -17.13369 ], [ -108.17649, -17.12527 ], [ -108.22309, -17.14 ], [ -108.20556, -17.15882 ], [ -108.20742, -17.16558 ], [ -108.20289, -17.16082 ], [ -108.34212, -17.39036 ], [ -106.7575, -19.07608 ], [ -106.75894, -19.06783 ], [ -106.58548, -18.80675 ], [ -106.58949, -18.79958 ], [ -106.61904, -18.78336 ], [ -106.29197, -18.41259 ], [ -106.11311, -18.15177 ], [ -105.77206, -17.79635 ], [ -105.76575, -17.73282 ], [ -105.76661, -17.73239 ], [ -105.79393, -17.69381 ], [ -105.79059, -17.6938 ], [ -105.69029, -17.50811 ], [ -105.6749, -17.50121 ], [ -105.30507, -16.77069 ], [ -105.28046, -16.72514 ], [ -105.32983, -16.7277 ], [ -105.29805, -16.70689 ], [ -105.31731, -16.69963 ], [ -105.32297, -16.69164 ], [ -105.09009, -16.33133 ], [ -105.09584, -16.34538 ], [ -105.09809, -16.31315 ], [ -105.00753, -16.08714 ], [ -105.00708, -16.08759 ], [ -105.00203, -16.04554 ], [ -104.98997, -16.08018 ], [ -104.93849, -15.73359 ], [ -104.93161, -15.71365 ], [ -104.74401, -15.59508 ], [ -104.19439, -15.16668 ], [ -104.44583, -15.40119 ], [ -104.22795, -15.22312 ], [ -104.22581, -15.22044 ], [ -104.22789, -15.21509 ], [ -104.02975, -15.04204 ], [ -103.95487, -14.96347 ], [ -103.95066, -14.98852 ], [ -103.61456, -14.71778 ], [ -103.42168, -14.48724 ], [ -103.27791, -14.34306 ], [ -103.25469, -14.32893 ], [ -103.25033, -14.32396 ], [ -103.08799, -14.13815 ], [ -103.0688, -14.12532 ], [ -102.99053, -13.92146 ], [ -102.96543, -13.9069 ], [ -102.4576, -13.25721 ], [ -102.4593, -13.25603 ], [ -102.42801, -13.23958 ], [ -102.44286, -13.24402 ], [ -102.42965, -13.24342 ], [ -102.45993, -13.20988 ], [ -102.45341, -13.20192 ], [ -102.45246, -13.21456 ], [ -102.41554, -13.19772 ], [ -102.35524, -13.16293 ], [ -102.41009, -13.13237 ], [ -102.40962, -13.1163 ], [ -102.41737, -13.11686 ], [ -102.40942, -13.13648 ], [ -102.40359, -13.12417 ], [ -102.39654, -13.11289 ], [ -102.40212, -13.11444 ], [ -102.38154, -13.09727 ], [ -102.38155, -13.09716 ], [ -102.38229, -13.09096 ], [ -102.38897, -13.09744 ], [ -102.31781, -13.05872 ], [ -102.31715, -13.05656 ], [ -102.31916, -13.06071 ], [ -102.31764, -13.05623 ], [ -102.31544, -13.05753 ], [ -102.18193, -12.98743 ], [ -102.18073, -12.98973 ], [ -102.17151, -12.99186 ], [ -102.12583, -12.92427 ], [ -102.09937, -12.92624 ], [ -102.09749, -12.92485 ], [ -102.0802, -12.9078 ], [ -102.01074, -12.84887 ], [ -102.0133, -12.85963 ], [ -101.95409, -12.83524 ], [ -101.94357, -12.82821 ], [ -101.95182, -12.83161 ], [ -101.95107, -12.83224 ], [ -101.95332, -12.83529 ], [ -101.94097, -12.83002 ], [ -101.99557, -12.88208 ], [ -101.98031, -12.87772 ], [ -101.88505, -12.82685 ], [ -101.89828, -12.83132 ], [ -101.74814, -12.76088 ], [ -101.74252, -12.78821 ], [ -101.75987, -12.80741 ], [ -101.75948, -12.8422 ], [ -101.7642, -12.84616 ], [ -101.76069, -12.8503 ], [ -101.74499, -12.87804 ], [ -101.70584, -12.82516 ], [ -101.6896, -12.82138 ], [ -101.69345, -12.77119 ], [ -101.69061, -12.82282 ], [ -101.63114, -12.83107 ], [ -101.61301, -12.82355 ], [ -101.604, -12.80353 ], [ -101.43572, -12.86522 ], [ -101.47562, -12.87141 ], [ -101.46231, -12.87721 ], [ -101.39262, -12.86808 ], [ -101.2987, -12.89049 ], [ -101.27585, -12.90878 ], [ -101.28828, -12.91352 ], [ -101.20413, -12.94276 ], [ -100.96038, -12.98825 ], [ -100.99284, -13.12505 ], [ -100.99028, -13.12166 ], [ -100.97986, -13.13253 ], [ -100.95531, -13.17032 ], [ -100.9682, -13.16762 ], [ -100.96842, -13.16756 ], [ -100.96589, -13.16734 ], [ -100.79529, -13.20703 ], [ -100.75276, -13.21827 ], [ -100.76411, -13.21606 ], [ -100.53842, -13.43071 ], [ -100.47551, -13.44303 ], [ -100.48814, -13.39156 ], [ -100.16797, -13.19864 ], [ -99.69603, -12.99477 ], [ -99.87195, -12.92974 ], [ -99.83772, -12.90936 ], [ -99.78588, -12.89336 ], [ -99.69148, -12.91486 ], [ -99.7041, -12.90524 ], [ -99.1977, -12.85012 ], [ -99.08283, -12.86643 ], [ -99.09954, -12.94194 ], [ -99.28002, -12.96838 ], [ -99.4898, -12.82244 ], [ -99.40993, -12.6226 ], [ -99.42361, -12.65493 ], [ -99.41223, -12.63551 ], [ -99.37204, -12.59823 ], [ -99.40083, -12.59706 ], [ -99.41834, -12.60494 ], [ -99.39148, -12.58727 ], [ -99.35347, -12.55892 ], [ -98.53286, -12.02523 ], [ -98.89612, -12.26156 ], [ -99.08791, -12.26922 ], [ -99.07625, -12.25942 ], [ -98.9924, -12.2584 ], [ -98.97581, -12.2656 ], [ -98.9742, -12.25035 ], [ -98.97333, -12.25208 ], [ -99.02883, -12.17233 ], [ -99.00853, -12.18167 ], [ -98.96842, -12.14918 ], [ -98.87164, -12.16586 ], [ -98.86916, -12.15142 ], [ -98.88855, -12.14997 ], [ -98.85686, -12.1475 ], [ -98.83409, -12.10087 ], [ -98.84421, -12.14193 ], [ -98.81668, -12.13995 ], [ -98.82756, -12.14253 ], [ -98.88529, -12.06126 ], [ -98.86058, -12.04384 ], [ -98.85681, -12.03884 ], [ -98.85796, -12.04453 ], [ -98.82971, -11.9915 ], [ -98.78991, -11.88882 ], [ -98.67723, -11.82443 ], [ -98.69106, -11.79824 ], [ -98.69108, -11.79836 ], [ -98.66271, -11.78842 ], [ -98.67969, -11.77571 ], [ -98.66367, -11.79414 ], [ -98.65382, -11.76721 ], [ -98.68968, -11.72637 ], [ -98.69909, -11.72047 ], [ -98.68203, -11.73035 ], [ -98.61842, -11.51172 ], [ -98.61831, -11.49839 ], [ -98.61563, -11.48959 ], [ -98.63366, -11.52572 ], [ -98.62689, -11.52383 ], [ -98.60625, -11.5416 ], [ -98.64277, -11.53621 ], [ -98.65747, -11.52801 ], [ -98.6855, -11.5408 ], [ -98.72462, -11.56341 ], [ -98.75928, -11.5895 ], [ -98.72856, -11.56051 ], [ -98.56744, -11.44856 ], [ -98.53315, -11.3438 ], [ -98.54817, -11.34093 ], [ -98.61478, -11.34138 ], [ -98.61571, -11.33922 ], [ -98.62683, -11.34684 ], [ -98.53429, -11.14488 ], [ -98.53014, -11.14031 ], [ -98.61829, -11.26062 ], [ -98.59682, -11.29471 ], [ -98.58431, -11.28575 ], [ -98.61599, -11.29148 ], [ -98.61196, -11.29948 ], [ -98.62514, -11.30595 ], [ -98.62752, -11.3192 ], [ -98.63458, -11.32382 ], [ -98.67805, -11.33969 ], [ -98.6641, -11.3476 ], [ -98.68633, -11.34636 ], [ -98.69662, -11.34986 ], [ -98.70305, -11.35517 ], [ -98.7063, -11.36231 ], [ -98.71311, -11.37163 ], [ -98.71374, -11.36907 ], [ -98.71088, -11.36591 ], [ -98.69797, -11.35374 ], [ -98.69777, -11.35387 ], [ -98.69517, -11.35741 ], [ -98.71219, -11.38242 ], [ -98.66961, -11.57621 ], [ -98.67, -11.57435 ], [ -98.67951, -11.57698 ], [ -98.69594, -11.60509 ], [ -98.69913, -11.59629 ], [ -98.6936, -11.59785 ], [ -98.71049, -11.5798 ], [ -98.71002, -11.58683 ], [ -98.70123, -11.59504 ], [ -98.71104, -11.61294 ], [ -98.69275, -11.70413 ], [ -98.70347, -11.7246 ], [ -98.69767, -11.73902 ], [ -98.70084, -11.73662 ], [ -98.70981, -11.74892 ], [ -98.7181, -11.74724 ], [ -98.70322, -11.74436 ], [ -98.72716, -11.73698 ], [ -98.7067, -11.7443 ], [ -98.70439, -11.75478 ], [ -98.70871, -11.74972 ], [ -98.76451, -11.77935 ], [ -98.76117, -11.78554 ], [ -98.76628, -11.78218 ], [ -98.91025, -11.80977 ], [ -98.638, -11.83106 ], [ -98.64975, -11.84348 ], [ -98.67589, -11.8291 ], [ -98.63833, -11.83226 ], [ -98.65558, -11.84544 ], [ -98.66591, -11.84505 ], [ -98.65317, -11.79768 ], [ -98.70015, -11.81574 ], [ -98.70376, -11.81364 ], [ -98.68152, -11.82114 ], [ -98.68783, -11.82543 ], [ -98.76297, -11.82553 ], [ -98.79484, -11.83787 ], [ -98.7886, -11.83044 ], [ -98.79851, -11.83166 ], [ -98.74837, -11.81075 ], [ -98.7587, -11.81428 ], [ -98.75508, -11.81403 ], [ -98.75512, -11.8016 ], [ -98.75996, -11.82833 ], [ -98.78133, -11.8194 ], [ -98.79013, -11.82174 ], [ -98.77994, -11.82558 ], [ -98.79017, -11.82683 ], [ -98.85546, -11.8316 ], [ -98.87315, -11.84089 ], [ -98.82394, -11.84602 ], [ -98.73153, -11.91506 ], [ -98.66424, -11.99307 ], [ -98.6311, -11.97637 ], [ -98.61663, -11.98207 ], [ -98.60492, -11.99108 ], [ -98.60297, -11.97968 ], [ -98.61697, -11.97385 ], [ -98.34244, -12.12124 ], [ -98.30513, -12.12575 ], [ -98.28069, -12.15024 ], [ -98.30116, -12.1402 ], [ -98.26842, -12.16684 ], [ -97.92374, -12.16694 ], [ -97.99845, -12.13395 ], [ -97.89339, -12.16934 ], [ -97.8334, -12.1801 ], [ -97.81985, -12.18896 ], [ -97.61176, -11.88873 ], [ -97.55011, -11.8497 ], [ -97.40767, -11.76338 ], [ -97.33815, -11.73222 ], [ -97.29535, -11.71092 ], [ -97.22935, -11.67454 ], [ -97.00759, -11.43093 ], [ -97.1111, -11.50592 ], [ -97.08482, -11.50824 ], [ -96.99227, -11.46404 ], [ -96.88267, -11.40612 ], [ -96.89747, -11.40968 ], [ -96.85529, -11.38582 ], [ -96.79123, -11.26074 ], [ -96.76551, -11.23508 ], [ -96.7557, -11.23423 ], [ -96.66827, -11.1153 ], [ -96.58784, -11.07051 ], [ -96.56153, -11.06115 ], [ -96.56116, -11.05122 ], [ -96.56017, -11.05165 ], [ -96.54746, -11.04371 ], [ -96.52237, -11.02541 ], [ -96.52075, -11.01619 ], [ -96.51485, -11.01142 ], [ -96.39275, -10.90556 ], [ -96.36103, -10.8561 ], [ -96.36919, -10.84711 ], [ -96.30741, -10.79826 ], [ -96.13306, -10.62649 ], [ -96.14663, -10.61702 ], [ -96.09159, -10.59126 ], [ -96.08526, -10.57689 ], [ -96.07573, -10.54862 ], [ -96.07865, -10.55115 ], [ -95.96744, -10.35478 ], [ -95.96224, -10.33087 ], [ -95.95935, -10.31692 ], [ -95.93003, -10.27239 ], [ -95.8054, -10.01116 ], [ -95.74716, -10.07176 ], [ -95.77345, -10.03217 ], [ -95.75527, -10.00832 ], [ -95.74641, -9.99999 ], [ -95.7386, -9.98399 ], [ -95.72796, -9.96831 ], [ -95.72784, -9.96072 ], [ -95.73123, -9.90615 ], [ -95.70812, -9.75215 ], [ -95.67416, -9.73417 ], [ -95.67439, -9.73748 ], [ -95.55849, -9.48318 ], [ -95.58596, -9.50873 ], [ -95.58638, -9.46696 ], [ -95.53435, -9.42652 ], [ -95.59509, -9.40933 ], [ -95.57454, -9.36298 ], [ -95.55611, -9.18177 ], [ -95.39236, -8.92065 ], [ -95.42129, -8.94011 ], [ -95.40536, -8.94856 ], [ -95.38076, -8.91879 ], [ -95.38654, -8.90317 ], [ -95.38634, -8.90533 ], [ -95.38494, -8.87211 ], [ -95.32714, -8.63985 ], [ -95.24705, -8.45865 ], [ -95.2341, -8.47624 ], [ -95.03478, -8.54468 ], [ -95.02683, -8.53931 ], [ -95.13551, -8.49507 ], [ -94.95923, -8.5058 ], [ -94.94896, -8.50342 ], [ -94.85807, -8.49877 ], [ -94.8002, -8.49388 ], [ -94.76544, -8.31959 ], [ -93.81193, -8.12223 ], [ -93.83933, -8.0444 ], [ -93.84, -8.03626 ], [ -94.28686, -7.95956 ], [ -94.36046, -8.01788 ], [ -94.35676, -8.00188 ], [ -94.33313, -7.98548 ], [ -94.24459, -7.8797 ], [ -94.11138, -7.74183 ], [ -93.82287, -7.63174 ], [ -93.83514, -7.63228 ], [ -93.84788, -7.66195 ], [ -93.82692, -7.62327 ], [ -93.82029, -7.60318 ], [ -93.81544, -7.60177 ], [ -93.76659, -7.58568 ], [ -93.7, -7.39439 ], [ -93.58218, -7.3496 ], [ -93.39072, -7.21746 ], [ -93.40125, -7.22259 ], [ -93.37334, -7.20013 ], [ -93.35698, -7.1718 ], [ -93.32772, -7.15547 ], [ -93.33206, -7.13437 ], [ -93.33106, -7.13224 ], [ -93.15424, -6.95423 ], [ -93.07842, -6.85603 ], [ -93.00243, -6.76813 ], [ -92.98019, -6.75527 ], [ -93.01284, -6.70317 ], [ -93.00763, -6.69427 ], [ -93.02502, -6.68996 ], [ -93.02956, -6.69154 ], [ -93.0409, -6.67369 ], [ -93.06308, -6.62386 ], [ -93.06198, -6.62733 ], [ -93.07312, -6.62025 ], [ -93.10465, -6.61548 ], [ -93.07348, -6.64466 ], [ -93.07359, -6.64406 ], [ -93.06851, -6.64249 ], [ -93.08265, -6.63816 ], [ -93.05187, -6.65701 ], [ -93.05602, -6.6581 ], [ -93.05617, -6.65712 ], [ -93.06113, -6.66628 ], [ -93.03485, -6.66989 ], [ -93.03268, -6.6747 ], [ -93.03558, -6.66815 ], [ -93.03119, -6.63602 ], [ -93.07606, -6.58365 ], [ -93.14585, -6.54418 ], [ -93.14417, -6.57696 ], [ -93.14362, -6.57687 ], [ -93.15814, -6.58229 ], [ -93.20843, -6.57469 ], [ -93.24994, -6.53197 ], [ -93.33443, -6.36638 ], [ -93.32223, -6.36148 ], [ -93.32042, -6.36098 ], [ -93.3399, -6.35014 ], [ -93.37322, -6.33308 ], [ -93.36272, -6.33471 ], [ -93.38194, -6.31995 ], [ -93.35823, -6.33393 ], [ -93.40446, -6.32387 ], [ -93.41612, -6.32129 ], [ -93.42236, -6.31797 ], [ -93.42412, -6.32358 ], [ -93.43064, -6.32556 ], [ -93.44882, -6.25248 ], [ -93.48969, -6.25238 ], [ -93.49759, -6.22564 ], [ -93.50596, -6.20108 ], [ -93.57881, -6.35462 ], [ -93.60928, -6.37003 ], [ -93.65388, -6.38597 ], [ -93.72732, -6.41312 ], [ -93.74036, -6.41946 ], [ -93.7509, -6.42621 ], [ -93.73524, -6.42616 ], [ -93.74785, -6.4385 ], [ -93.81315, -6.46912 ], [ -93.86822, -6.49254 ], [ -93.90249, -6.48428 ], [ -93.7627, -6.45732 ], [ -93.76672, -6.45717 ], [ -93.76656, -6.45787 ], [ -93.76891, -6.45437 ], [ -93.77713, -6.45778 ], [ -93.77545, -6.46028 ], [ -93.78221, -6.45952 ], [ -93.78955, -6.45781 ], [ -93.70807, -6.31328 ], [ -93.84118, -6.32155 ], [ -93.84291, -6.32103 ], [ -93.84348, -6.3177 ], [ -93.88996, -6.33217 ], [ -93.89067, -6.33396 ], [ -93.89406, -6.33518 ], [ -93.90913, -6.33353 ], [ -93.90188, -6.3344 ], [ -93.92021, -6.33965 ], [ -93.92749, -6.33788 ], [ -93.85317, -6.33276 ], [ -93.83366, -6.15362 ], [ -93.82367, -6.15925 ], [ -93.84408, -6.16121 ], [ -93.83056, -6.16808 ], [ -93.82781, -6.15999 ], [ -93.81065, -6.18309 ], [ -93.84208, -6.1658 ], [ -93.82901, -6.17118 ], [ -93.82144, -6.17476 ], [ -93.81809, -6.18404 ], [ -93.81771, -6.15691 ], [ -93.81325, -6.14804 ], [ -93.93556, -6.08373 ], [ -93.94166, -6.08503 ], [ -93.94611, -6.07751 ], [ -93.94876, -6.07207 ], [ -93.94018, -6.07366 ], [ -93.9359, -6.06537 ], [ -93.93765, -6.05178 ], [ -93.95319, -6.05659 ], [ -93.95741, -6.04941 ], [ -93.95268, -6.05315 ], [ -93.96354, -6.04794 ], [ -93.94871, -6.06733 ], [ -93.95779, -6.05642 ], [ -93.94639, -6.0713 ], [ -93.94439, -6.06268 ], [ -93.94349, -6.06505 ], [ -93.95343, -6.07494 ], [ -93.94545, -6.0854 ], [ -93.96485, -6.09184 ], [ -93.96619, -6.06749 ], [ -93.91698, -6.04297 ], [ -93.89027, -6.00323 ], [ -93.89029, -6.00322 ], [ -93.8042, -5.93408 ], [ -93.76854, -5.85703 ], [ -94.06556, -6.05024 ], [ -94.10025, -6.05978 ], [ -94.07491, -6.08898 ], [ -94.05846, -5.98654 ], [ -94.0546, -5.98841 ], [ -94.15864, -6.02897 ], [ -94.15132, -6.03417 ], [ -94.12858, -6.03132 ], [ -94.11858, -6.012 ], [ -94.07111, -5.94555 ], [ -94.12444, -6.01761 ], [ -94.13069, -6.03059 ], [ -94.03573, -5.99576 ], [ -94.10359, -5.9936 ], [ -94.09665, -6.00027 ], [ -94.09039, -5.98539 ], [ -94.0663, -5.98634 ], [ -94.05335, -5.97742 ], [ -93.96726, -5.90847 ], [ -93.98147, -5.90206 ], [ -93.97934, -5.9023 ], [ -93.95805, -5.88493 ], [ -93.96229, -5.89234 ], [ -93.96112, -5.88737 ], [ -93.85099, -5.91996 ], [ -93.93799, -5.90859 ], [ -93.95535, -5.90617 ], [ -93.96204, -5.90327 ], [ -93.95879, -5.89945 ], [ -94.03594, -5.68661 ], [ -94.06314, -5.653 ], [ -94.06033, -5.65299 ], [ -94.18961, -5.47387 ], [ -94.18357, -5.52067 ], [ -94.20371, -5.5418 ], [ -94.25662, -5.53135 ], [ -94.26174, -5.58824 ], [ -94.26777, -5.59693 ], [ -94.26949, -5.59944 ], [ -94.30399, -5.6089 ], [ -94.77932, -5.7005 ], [ -94.56733, -5.55028 ], [ -94.58838, -5.56041 ], [ -94.64295, -5.58681 ], [ -94.63399, -5.59864 ], [ -94.87754, -5.56834 ], [ -95.20124, -5.56114 ], [ -95.48464, -5.61076 ], [ -95.22967, -5.60605 ], [ -95.24868, -5.61065 ], [ -95.24873, -5.60703 ], [ -94.73419, -5.67414 ], [ -95.01243, -5.63359 ], [ -95.06693, -5.62804 ], [ -95.39485, -5.05495 ], [ -95.47481, -4.97191 ], [ -95.47106, -4.96341 ], [ -95.46835, -4.96268 ], [ -95.47106, -4.96338 ], [ -95.50834, -4.87983 ], [ -95.5253, -4.83164 ], [ -95.51967, -4.82889 ], [ -95.50884, -4.85091 ], [ -95.38452, -4.98461 ], [ -95.46061, -5.02854 ], [ -95.35316, -5.08829 ], [ -95.56619, -5.10587 ], [ -95.57229, -5.10564 ], [ -95.60014, -5.10626 ], [ -95.67679, -5.0716 ], [ -95.65609, -5.05655 ], [ -95.69111, -5.07386 ], [ -95.75066, -5.03442 ], [ -95.781, -5.05224 ], [ -95.80848, -5.06125 ], [ -96.00171, -5.0769 ], [ -95.85634, -5.07024 ], [ -96.05377, -5.08467 ], [ -95.88834, -5.07382 ], [ -96.09802, -5.05453 ] ] } }
]
}
